KUZGTU 1 (RS47S)        
1 57217U 23091AV  26198.63795703  .00005968  00000+0  20476-3 0  9992
2 57217  97.5044 263.4396 0009831 357.3450   2.7737 15.30501431169032
SONATE-2                
1 59112U 24043Q   26197.96844803  .00027689  00000+0  33135-3 0  9997
2 59112  97.5562 350.2475 0006798 100.9069 259.2953 15.60926983132533
MESAT1                  
1 60209U 24125G   26198.09587537  .00046250  00000+0  44049-3 0  9991
2 60209  97.2241  56.3290 0010849 106.3695 253.8760 15.66613210114245
OOV-CUBE (TUBSAT-30)    
1 60240U 24128F   26198.06347753  .00000952  00000+0  85234-4 0  9991
2 60240  61.9940 121.3870 0040878 140.4347 219.9741 15.02878305110605
COLIBRI-S (RS67S)       
1 61746U 24199M   26198.63059632  .00012482  00000+0  23264-3 0  9995
2 61746  97.2940  72.7820 0009260 153.9167 206.2553 15.48915608142122
HORS 3 (RS81S)          
1 61753U 24199U   26198.63593826  .00023559  00000+0  32674-3 0  9993
2 61753  97.2924  75.1230 0007357 148.4205 211.7493 15.57026342142291
HORS 4 (RS82S)          
1 61754U 24199V   26198.62499881  .00033242  00000+0  37305-3 0  9995
2 61754  97.2863  76.5275 0007255 141.2064 218.9717 15.62555146142393
SIT-2086                
1 61764U 24199AF  26198.58684707  .00022513  00000+0  33472-3 0  9994
2 61764  97.2880  75.4437 0008419 137.2849 222.9062 15.55134202139156
HYPERVIEW 1G (RS66S)    
1 61772U 24199AP  26198.44982837  .00166984  00000+0  66647-3 0  9994
2 61772  97.2778  79.9100 0008310 143.3161 216.8680 15.86108599139457
ALTAIR (RS65S)          
1 61779U 24199AW  26198.57489150  .00006143  00000+0  16866-3 0  9993
2 61779  97.2985  67.7303 0012299 187.7295 172.3762 15.37537520141787
ASRTU-1 (AO-123)        
1 61781U 24199AY  26198.59064702  .00003993  00000+0  11566-3 0  9992
2 61781  97.2956  66.9895 0013260 191.8068 168.2867 15.36073941138594
SAMSAT-IONOSPHERE (RS7*)
1 61784U 24199BB  26198.61229698  .00029928  00000+0  36642-3 0  9993
2 61784  97.2887  75.2682 0009485 152.6050 207.5709 15.60281870142302
RTU MIREA 1 (RS51S)     
1 61785U 24199BC  26198.62625178  .00040398  00000+0  41945-3 0  9994
2 61785  97.2871  76.2875 0009571 147.6504 212.5345 15.64484355139221
TEVEL2-4                
1 63213U 25052D   26198.16635712  .00010121  00000+0  29456-3 0  9999
2 63213  97.3861  94.6235 0003412  48.0092 312.1442 15.35610547 74716
TEVEL2-5                
1 63214U 25052E   26197.66900195  .00011058  00000+0  32363-3 0  9995
2 63214  97.3862  94.0641 0003463  50.3372 309.8177 15.35411833 74632
TEVEL2-6                
1 63215U 25052F   26198.65959542  .00009817  00000+0  28776-3 0  9999
2 63215  97.3864  95.0416 0003362  51.0715 309.0827 15.35395037 74780
TEVEL2-1                
1 63217U 25052H   26198.50401061  .00009140  00000+0  27300-3 0  9994
2 63217  97.3833  94.4731 0004106  55.4900 304.6730 15.34820987 74748
TEVEL2-3                
1 63218U 25052J   26198.17150676  .00009845  00000+0  29333-3 0  9991
2 63218  97.3842  94.1664 0003827  58.5238 301.6379 15.34878538 74693
TEVEL2-2                
1 63219U 25052K   26198.43892551  .00009542  00000+0  28479-3 0  9990
2 63219  97.3834  94.4108 0004138  55.7304 304.4331 15.34831434 74738
OTP-2                   
1 63235U 25052AB  26198.49223768  .00003372  00000+0  14056-3 0  9993
2 63235  97.3826  90.4721 0008055  64.7620 295.4452 15.24353706 74482
TEVEL2-9                
1 63237U 25052AD  26197.67279632  .00010133  00000+0  32238-3 0  9990
2 63237  97.3899  92.9536 0007556  53.0535 307.1398 15.32762164 74544
TEVEL2-7                
1 63238U 25052AE  26198.17666353  .00008943  00000+0  28760-3 0  9998
2 63238  97.3898  93.3596 0007602  51.1945 308.9975 15.32453102 74618
TEVEL2-8                
1 63239U 25052AF  26197.66282234  .00009609  00000+0  30904-3 0  9997
2 63239  97.3904  92.8233 0007710  54.0583 306.1374 15.32429153 74532
INNOSAT 16 (RS92S7)     
1 64878U 25155C   26198.63233868  .00002955  00000+0  11847-3 0  9990
2 64878  97.4587 165.6732 0012442  81.1229 279.1417 15.25753321 85313
GEOSCAN 6 (RS92S6)      
1 64879U 25155D   26198.58474015  .00005283  00000+0  18057-3 0  9993
2 64879  97.4578 167.2697 0009885  75.4795 284.7541 15.30681305 85412
GEOSCAN 1 (RS92S1)      
1 64880U 25155E   26198.57478040  .00005748  00000+0  19233-3 0  9999
2 64880  97.4575 167.4352 0009800  75.6527 284.5801 15.31331645 85421
239ALFEROV (RS61S)      
1 64881U 25155F   26198.62960945  .00007907  00000+0  24471-3 0  9995
2 64881  97.4573 168.1583 0009528  75.4812 284.7486 15.33711801 85470
GEOSCAN 2 (RS92S2)      
1 64890U 25155Q   26198.62858750  .00005885  00000+0  19530-3 0  9998
2 64890  97.4573 167.6536 0008917  65.8936 294.3237 15.31590128 85446
GEOSCAN 5 (RS92S5)      
1 64891U 25155R   26198.61244393  .00007641  00000+0  23438-3 0  9994
2 64891  97.4566 168.2899 0008584  80.1468 280.0743 15.34015335 85481
GEOSCAN 4 (RS92S4)      
1 64892U 25155S   26198.59344202  .00008198  00000+0  24993-3 0  9997
2 64892  97.4570 168.3283 0008492  80.6624 279.5579 15.34184583 85484
