OBJECT_NAME,OBJECT_ID,EPOCH,MEAN_MOTION,ECCENTRICITY,INCLINATION,RA_OF_ASC_NODE,ARG_OF_PERICENTER,MEAN_ANOMALY,EPHEMERIS_TYPE,CLASSIFICATION_TYPE,NORAD_CAT_ID,ELEMENT_SET_NO,REV_AT_EPOCH,BSTAR,MEAN_MOTION_DOT,MEAN_MOTION_DDOT
KUZGTU 1 (RS47S),2023-091AV,2026-07-17T15:18:39.487392,15.30501431,.00098318,97.5044,263.4396,357.3450,2.7737,0,U,57217,999,16903,.20476422E-3,.5968E-4,0
SONATE-2,2024-043Q,2026-07-16T23:14:33.909792,15.60926983,.00067987,97.5562,350.2475,100.9069,259.2953,0,U,59112,999,13253,.33134763E-3,.27689E-3,0
MESAT1,2024-125G,2026-07-17T02:18:03.631968,15.66613210,.00108497,97.2241,56.3290,106.3695,253.8760,0,U,60209,999,11424,.44048723E-3,.4625E-3,0
OOV-CUBE (TUBSAT-30),2024-128F,2026-07-17T01:31:24.458592,15.02878305,.00408781,61.9940,121.3870,140.4347,219.9741,0,U,60240,999,11060,.85234402E-4,.952E-5,0
COLIBRI-S (RS67S),2024-199M,2026-07-17T15:08:03.522048,15.48915608,.00092601,97.2940,72.7820,153.9167,206.2553,0,U,61746,999,14212,.23264055E-3,.12482E-3,0
HORS 3 (RS81S),2024-199U,2026-07-17T15:15:45.065664,15.57026342,.00073575,97.2924,75.1230,148.4205,211.7493,0,U,61753,999,14229,.32674266E-3,.23559E-3,0
HORS 4 (RS82S),2024-199V,2026-07-17T14:59:59.897184,15.62555146,.00072557,97.2863,76.5275,141.2064,218.9717,0,U,61754,999,14239,.37304829E-3,.33242E-3,0
SIT-2086,2024-199AF,2026-07-17T14:05:03.586848,15.55134202,.00084192,97.2880,75.4437,137.2849,222.9062,0,U,61764,999,13915,.33471796E-3,.22513E-3,0
HYPERVIEW 1G (RS66S),2024-199AP,2026-07-17T10:47:45.171168,15.86108599,.00083105,97.2778,79.9100,143.3161,216.8680,0,U,61772,999,13945,.66647459E-3,.166984E-2,0
ALTAIR (RS65S),2024-199AW,2026-07-17T13:47:50.625600,15.37537520,.00122992,97.2985,67.7303,187.7295,172.3762,0,U,61779,999,14178,.16866323E-3,.6143E-4,0
ASRTU-1 (AO-123),2024-199AY,2026-07-17T14:10:31.902528,15.36073941,.00132603,97.2956,66.9895,191.8068,168.2867,0,U,61781,999,13859,.11565929E-3,.3993E-4,0
SAMSAT-IONOSPHERE (RS75S),2024-199BB,2026-07-17T14:41:42.459072,15.60281870,.00094857,97.2887,75.2682,152.6050,207.5709,0,U,61784,999,14230,.36641744E-3,.29928E-3,0
RTU MIREA 1 (RS51S),2024-199BC,2026-07-17T15:01:48.153792,15.64484355,.00095715,97.2871,76.2875,147.6504,212.5345,0,U,61785,999,13922,.41944567E-3,.40398E-3,0
TEVEL2-4,2025-052D,2026-07-17T03:59:33.255168,15.35610547,.0003412,97.3861,94.6235,48.0092,312.1442,0,U,63213,999,7471,.29456246E-3,.10121E-3,0
TEVEL2-5,2025-052E,2026-07-16T16:03:21.768480,15.35411833,.00034631,97.3862,94.0641,50.3372,309.8177,0,U,63214,999,7463,.32362702E-3,.11058E-3,0
TEVEL2-6,2025-052F,2026-07-17T15:49:49.044288,15.35395037,.00033629,97.3864,95.0416,51.0715,309.0827,0,U,63215,999,7478,.2877607E-3,.9817E-4,0
TEVEL2-1,2025-052H,2026-07-17T12:05:46.516704,15.34820987,.0004106,97.3833,94.4731,55.4900,304.6730,0,U,63217,999,7474,.27299742E-3,.914E-4,0
TEVEL2-3,2025-052J,2026-07-17T04:06:58.184064,15.34878538,.00038276,97.3842,94.1664,58.5238,301.6379,0,U,63218,999,7469,.29333104E-3,.9845E-4,0
TEVEL2-2,2025-052K,2026-07-17T10:32:03.164064,15.34831434,.00041388,97.3834,94.4108,55.7304,304.4331,0,U,63219,999,7473,.28479072E-3,.9542E-4,0
OTP-2,2025-052AB,2026-07-17T11:48:49.335552,15.24353706,.00080555,97.3826,90.4721,64.7620,295.4452,0,U,63235,999,7448,.14056224E-3,.3372E-4,0
TEVEL2-9,2025-052AD,2026-07-16T16:08:49.602048,15.32762164,.00075566,97.3899,92.9536,53.0535,307.1398,0,U,63237,999,7454,.32238013E-3,.10133E-3,0
TEVEL2-7,2025-052AE,2026-07-17T04:14:23.728992,15.32453102,.00076022,97.3898,93.3596,51.1945,308.9975,0,U,63238,999,7461,.28759837E-3,.8943E-4,0
TEVEL2-8,2025-052AF,2026-07-16T15:54:27.850176,15.32429153,.00077106,97.3904,92.8233,54.0583,306.1374,0,U,63239,999,7453,.30904259E-3,.9609E-4,0
INNOSAT 16 (RS92S7),2025-155C,2026-07-17T15:10:34.061952,15.25753321,.00124421,97.4587,165.6732,81.1229,279.1417,0,U,64878,999,8531,.11847278E-3,.2955E-4,0
GEOSCAN 6 (RS92S6),2025-155D,2026-07-17T14:02:01.548960,15.30681305,.00098855,97.4578,167.2697,75.4795,284.7541,0,U,64879,999,8541,.18056908E-3,.5283E-4,0
GEOSCAN 1 (RS92S1),2025-155E,2026-07-17T13:47:41.026560,15.31331645,.00098,97.4575,167.4352,75.6527,284.5801,0,U,64880,999,8542,.19232737E-3,.5748E-4,0
239ALFEROV (RS61S),2025-155F,2026-07-17T15:06:38.256480,15.33711801,.00095287,97.4573,168.1583,75.4812,284.7486,0,U,64881,999,8547,.24470856E-3,.7907E-4,0
GEOSCAN 2 (RS92S2),2025-155Q,2026-07-17T15:05:09.960000,15.31590128,.00089175,97.4573,167.6536,65.8936,294.3237,0,U,64890,999,8544,.19530282E-3,.5885E-4,0
GEOSCAN 5 (RS92S5),2025-155R,2026-07-17T14:41:55.155552,15.34015335,.00085847,97.4566,168.2899,80.1468,280.0743,0,U,64891,999,8548,.23438445E-3,.7641E-4,0
GEOSCAN 4 (RS92S4),2025-155S,2026-07-17T14:14:33.390528,15.34184583,.0008492,97.4570,168.3283,80.6624,279.5579,0,U,64892,999,8548,.24993367E-3,.8198E-4,0
